[{"OBJECT_NAME":"GOES 18","OBJECT_ID":"2022-021A","EPOCH":"2026-03-03T03:09:22.762944","MEAN_MOTION":1.00271419,"ECCENTRICITY":5.81e-5,"INCLINATION":0.0269,"RA_OF_ASC_NODE":75.318,"ARG_OF_PERICENTER":316.5209,"MEAN_ANOMALY":39.3881,"EPHEMERIS_TYPE":0,"CLASSIFICATION_TYPE":"U","NORAD_CAT_ID":51850,"ELEMENT_SET_NO":999,"REV_AT_EPOCH":552,"BSTAR":0,"MEAN_MOTION_DOT":8.1e-7,"MEAN_MOTION_DDOT":0},{"OBJECT_NAME":"GOES 19","OBJECT_ID":"2024-119A","EPOCH":"2026-03-03T03:25:38.777088","MEAN_MOTION":1.00272211,"ECCENTRICITY":9.53e-5,"INCLINATION":0.0107,"RA_OF_ASC_NODE":254.0171,"ARG_OF_PERICENTER":121.1942,"MEAN_ANOMALY":121.9052,"EPHEMERIS_TYPE":0,"CLASSIFICATION_TYPE":"U","NORAD_CAT_ID":60133,"ELEMENT_SET_NO":999,"REV_AT_EPOCH":590,"BSTAR":0,"MEAN_MOTION_DOT":-2.64e-6,"MEAN_MOTION_DDOT":0}]
