GOES 18                 
1 51850U 22021A   26062.13151346  .00000081  00000+0  00000+0 0  9993
2 51850   0.0269  75.3180 0000581 316.5209  39.3881  1.00271419  5521
GOES 19                 
1 60133U 24119A   26062.14280992 -.00000264  00000+0  00000+0 0  9992
2 60133   0.0107 254.0171 0000953 121.1942 121.9052  1.00272211  5900
